{
  "type": "FeatureCollection",
  "features": [
    {
      "type": "Feature",
      "id": "britannia",
      "properties": { "name": "Britannia", "regionId": "britannia" },
      "geometry": {
        "type": "Polygon",
        "coordinates": [[
          [-5.8, 50.2], [-5.2, 50.0], [-4.7, 50.4], [-3.5, 50.3],
          [-1.9, 50.7], [1.4, 51.0], [1.8, 51.3], [1.4, 51.7],
          [0.8, 52.1], [0.6, 52.6], [0.0, 52.8], [-1.0, 52.7],
          [-2.4, 53.0], [-3.2, 53.3], [-4.0, 53.2], [-5.0, 52.8],
          [-5.5, 52.2], [-5.4, 51.5], [-5.8, 50.9], [-5.8, 50.2]
        ]]
      }
    },
    {
      "type": "Feature",
      "id": "caledonia",
      "properties": { "name": "Caledonia", "regionId": "caledonia" },
      "geometry": {
        "type": "Polygon",
        "coordinates": [[
          [-5.0, 55.0], [-4.5, 54.9], [-3.8, 55.3], [-3.0, 55.7],
          [-2.2, 56.2], [-1.8, 56.8], [-2.2, 57.4], [-2.5, 57.9],
          [-3.2, 58.2], [-4.0, 58.3], [-4.8, 57.9], [-5.5, 57.4],
          [-6.0, 56.8], [-6.5, 56.0], [-6.8, 55.3], [-6.4, 55.0],
          [-5.8, 55.0], [-5.0, 55.0]
        ]]
      }
    },
    {
      "type": "Feature",
      "id": "hibernia",
      "properties": { "name": "Hibernia", "regionId": "hibernia" },
      "geometry": {
        "type": "Polygon",
        "coordinates": [[
          [-10.0, 51.8], [-9.5, 51.5], [-9.0, 51.8], [-8.3, 52.0],
          [-7.5, 52.4], [-6.8, 52.6], [-6.2, 53.0], [-5.6, 53.5],
          [-5.5, 54.2], [-5.8, 54.8], [-6.4, 55.1], [-7.2, 55.1],
          [-8.0, 54.8], [-8.8, 54.3], [-9.5, 53.8], [-10.0, 53.2],
          [-10.5, 52.7], [-10.3, 52.2], [-10.0, 51.8]
        ]]
      }
    },
    {
      "type": "Feature",
      "id": "gallia",
      "properties": { "name": "Gallia", "regionId": "gallia" },
      "geometry": {
        "type": "Polygon",
        "coordinates": [[
          [3.5, 51.0], [4.2, 51.3], [5.0, 51.2], [5.8, 51.5],
          [6.5, 51.2], [7.2, 50.5], [8.0, 49.8], [7.5, 49.2],
          [6.8, 48.5], [6.5, 47.8], [5.5, 47.2], [4.0, 46.5],
          [2.2, 46.5], [0.0, 46.8], [-0.8, 47.5], [-0.2, 48.2],
          [1.2, 48.8], [2.0, 49.2], [2.5, 49.8], [3.5, 51.0]
        ]]
      }
    },
    {
      "type": "Feature",
      "id": "aquitania",
      "properties": { "name": "Aquitania", "regionId": "aquitania" },
      "geometry": {
        "type": "Polygon",
        "coordinates": [[
          [0.0, 46.8], [1.2, 46.5], [2.0, 45.8], [2.5, 45.2],
          [3.2, 44.5], [3.5, 43.8], [2.8, 43.2], [2.0, 42.8],
          [1.0, 43.0], [-0.2, 43.2], [-1.0, 43.5], [-1.8, 43.8],
          [-2.0, 44.5], [-1.5, 45.0], [-0.8, 45.8], [-0.2, 46.2],
          [0.0, 46.8]
        ]]
      }
    },
    {
      "type": "Feature",
      "id": "hispania",
      "properties": { "name": "Hispania", "regionId": "hispania" },
      "geometry": {
        "type": "Polygon",
        "coordinates": [[
          [-9.2, 43.0], [-8.0, 43.5], [-7.0, 43.5], [-6.0, 43.3],
          [-5.0, 43.4], [-3.5, 43.3], [-2.5, 43.0], [-1.8, 42.4],
          [-1.0, 41.8], [0.0, 41.2], [1.0, 40.8], [2.0, 40.4],
          [2.8, 39.8], [3.2, 39.2], [2.5, 38.6], [1.5, 38.2],
          [0.5, 37.8], [-0.5, 37.2], [-1.8, 36.8], [-3.0, 36.5],
          [-4.2, 36.6], [-5.4, 36.2], [-6.0, 36.5], [-7.0, 37.0],
          [-7.8, 37.5], [-8.5, 38.2], [-8.8, 39.2], [-9.0, 40.0],
          [-9.2, 41.0], [-9.3, 42.0], [-9.2, 43.0]
        ]]
      }
    },
    {
      "type": "Feature",
      "id": "italia",
      "properties": { "name": "Italia", "regionId": "italia" },
      "geometry": {
        "type": "Polygon",
        "coordinates": [[
          [7.5, 44.2], [7.8, 44.5], [8.5, 44.5], [9.0, 44.8],
          [9.5, 45.0], [10.2, 45.2], [11.0, 45.5], [11.8, 45.7],
          [12.8, 45.8], [13.8, 45.6], [14.2, 45.2], [14.5, 44.8],
          [14.8, 44.2], [15.0, 43.5], [15.2, 43.0], [15.5, 42.5],
          [16.0, 42.0], [16.4, 41.5], [16.8, 41.0], [17.2, 40.4],
          [17.8, 40.0], [17.5, 39.5], [16.8, 39.0], [16.2, 38.5],
          [15.8, 38.0], [16.2, 37.8], [15.2, 37.9], [14.5, 37.8],
          [13.8, 37.6], [12.8, 37.5], [12.0, 37.8], [11.5, 38.1],
          [10.8, 38.0], [10.0, 38.5], [9.2, 39.2], [8.8, 40.0],
          [8.5, 40.8], [8.2, 41.8], [7.8, 42.5], [7.5, 43.2],
          [7.5, 44.0], [7.5, 44.2]
        ]]
      }
    },
    {
      "type": "Feature",
      "id": "sicilia",
      "properties": { "name": "Sicilia", "regionId": "sicilia" },
      "geometry": {
        "type": "Polygon",
        "coordinates": [[
          [12.2, 38.2], [12.8, 38.2], [13.5, 38.0], [14.2, 37.8],
          [14.8, 37.5], [15.2, 37.2], [15.5, 36.8], [15.4, 36.5],
          [14.8, 36.8], [14.2, 36.8], [13.8, 36.5], [13.2, 36.7],
          [12.5, 37.0], [12.0, 37.2], [12.2, 37.5], [12.2, 38.0],
          [12.2, 38.2]
        ]]
      }
    },
    {
      "type": "Feature",
      "id": "germania",
      "properties": { "name": "Germania", "regionId": "germania" },
      "geometry": {
        "type": "Polygon",
        "coordinates": [[
          [5.0, 53.5], [5.8, 53.5], [6.5, 53.8], [7.2, 53.5],
          [7.8, 53.0], [8.5, 52.5], [9.5, 52.2], [10.5, 52.0],
          [11.8, 51.5], [12.8, 51.0], [13.5, 50.5], [14.0, 50.0],
          [14.5, 49.5], [15.0, 48.8], [14.5, 48.2], [13.5, 48.0],
          [12.5, 48.0], [11.5, 48.2], [10.5, 48.5], [9.5, 48.8],
          [8.5, 49.0], [7.5, 49.2], [6.5, 49.5], [6.0, 50.0],
          [5.5, 50.5], [5.0, 51.0], [4.8, 51.5], [4.5, 52.0],
          [4.8, 52.8], [5.0, 53.5]
        ]]
      }
    },
    {
      "type": "Feature",
      "id": "raetia",
      "properties": { "name": "Raetia", "regionId": "raetia" },
      "geometry": {
        "type": "Polygon",
        "coordinates": [[
          [7.0, 47.8], [7.5, 47.5], [8.2, 47.5], [8.8, 47.5],
          [9.5, 47.2], [10.0, 46.8], [10.5, 46.5], [11.0, 46.2],
          [11.5, 46.0], [12.0, 45.8], [12.5, 45.5], [13.0, 45.5],
          [13.5, 45.5], [14.5, 45.5], [15.0, 45.8], [14.5, 46.2],
          [14.0, 46.5], [13.0, 46.8], [12.0, 47.0], [11.0, 47.2],
          [10.0, 47.5], [9.0, 47.8], [8.0, 47.8], [7.0, 47.8]
        ]]
      }
    },
    {
      "type": "Feature",
      "id": "pannonia",
      "properties": { "name": "Pannonia", "regionId": "pannonia" },
      "geometry": {
        "type": "Polygon",
        "coordinates": [[
          [16.0, 47.0], [16.5, 47.5], [17.0, 47.8], [17.8, 48.0],
          [18.5, 48.2], [19.5, 48.4], [20.2, 48.2], [21.0, 47.8],
          [22.0, 47.5], [22.5, 47.0], [22.5, 46.5], [22.0, 46.0],
          [21.5, 46.0], [20.5, 45.8], [19.5, 45.8], [18.8, 46.0],
          [18.0, 46.2], [17.5, 46.5], [16.8, 46.8], [16.0, 47.0]
        ]]
      }
    },
    {
      "type": "Feature",
      "id": "illyricum",
      "properties": { "name": "Illyricum", "regionId": "illyricum" },
      "geometry": {
        "type": "Polygon",
        "coordinates": [[
          [14.5, 45.5], [14.8, 45.2], [15.2, 44.8], [15.8, 44.5],
          [16.2, 44.0], [16.5, 43.5], [17.0, 43.0], [17.5, 42.5],
          [18.0, 42.2], [18.5, 42.0], [19.0, 42.2], [19.5, 42.5],
          [19.8, 42.8], [19.5, 43.2], [19.0, 43.5], [18.5, 43.8],
          [18.0, 44.2], [17.5, 44.5], [17.0, 45.0], [16.5, 45.5],
          [15.8, 45.8], [15.0, 45.8], [14.5, 45.5]
        ]]
      }
    },
    {
      "type": "Feature",
      "id": "moesia",
      "properties": { "name": "Moesia", "regionId": "moesia" },
      "geometry": {
        "type": "Polygon",
        "coordinates": [[
          [19.0, 43.5], [19.5, 43.2], [20.2, 43.0], [20.8, 43.2],
          [21.5, 43.0], [22.2, 42.5], [23.0, 42.8], [23.8, 43.0],
          [24.5, 43.2], [25.0, 43.5], [25.5, 43.2], [26.2, 42.8],
          [27.0, 42.5], [27.5, 42.2], [28.0, 42.8], [28.2, 43.5],
          [28.0, 44.0], [27.5, 44.2], [27.0, 44.2], [26.5, 44.0],
          [26.0, 43.8], [25.0, 43.8], [24.0, 44.0], [23.0, 44.2],
          [22.0, 44.2], [21.0, 44.5], [20.0, 44.5], [19.5, 44.0],
          [19.0, 43.5]
        ]]
      }
    },
    {
      "type": "Feature",
      "id": "thracia",
      "properties": { "name": "Thracia", "regionId": "thracia" },
      "geometry": {
        "type": "Polygon",
        "coordinates": [[
          [23.0, 42.8], [23.5, 42.5], [24.0, 42.2], [24.5, 41.8],
          [25.0, 41.7], [25.8, 41.5], [26.5, 41.2], [27.0, 41.0],
          [27.5, 40.8], [28.0, 41.0], [28.5, 41.5], [29.0, 41.8],
          [29.2, 41.5], [29.0, 42.0], [28.5, 42.0], [28.0, 41.8],
          [27.5, 42.2], [27.0, 42.5], [26.2, 42.8], [25.5, 43.2],
          [25.0, 43.5], [24.5, 43.2], [23.8, 43.0], [23.0, 42.8]
        ]]
      }
    },
    {
      "type": "Feature",
      "id": "graecia",
      "properties": { "name": "Graecia", "regionId": "graecia" },
      "geometry": {
        "type": "Polygon",
        "coordinates": [[
          [19.8, 39.8], [20.2, 40.0], [20.8, 40.2], [21.2, 40.5],
          [21.5, 40.8], [22.2, 41.0], [22.8, 41.2], [23.5, 41.2],
          [24.0, 41.0], [24.5, 40.5], [24.8, 40.0], [24.5, 39.5],
          [24.0, 39.0], [23.5, 38.5], [23.0, 38.0], [22.8, 37.5],
          [22.5, 37.0], [22.0, 36.5], [21.8, 36.2], [21.2, 36.5],
          [21.0, 37.0], [20.5, 37.5], [20.0, 38.0], [19.5, 38.5],
          [19.2, 39.0], [19.5, 39.5], [19.8, 39.8]
        ]]
      }
    },
    {
      "type": "Feature",
      "id": "dacia",
      "properties": { "name": "Dacia", "regionId": "dacia" },
      "geometry": {
        "type": "Polygon",
        "coordinates": [[
          [22.0, 46.5], [22.5, 46.2], [23.0, 46.0], [23.8, 46.0],
          [24.5, 46.2], [25.0, 46.5], [25.5, 46.8], [26.2, 47.0],
          [27.0, 47.2], [27.5, 47.5], [28.0, 47.8], [28.5, 47.5],
          [28.8, 47.0], [29.0, 46.5], [28.5, 46.0], [28.0, 45.8],
          [27.5, 45.5], [27.0, 45.2], [26.5, 44.8], [26.0, 44.5],
          [25.0, 44.5], [24.0, 44.5], [23.0, 44.8], [22.0, 45.0],
          [21.0, 45.2], [21.5, 45.8], [22.0, 46.5]
        ]]
      }
    },
    {
      "type": "Feature",
      "id": "sarmatia",
      "properties": { "name": "Sarmatia", "regionId": "sarmatia" },
      "geometry": {
        "type": "Polygon",
        "coordinates": [[
          [14.5, 52.0], [15.5, 52.5], [16.5, 52.8], [17.5, 53.0],
          [18.5, 53.2], [19.5, 53.5], [20.5, 53.8], [21.5, 53.2],
          [22.5, 52.8], [23.5, 52.2], [24.5, 52.0], [25.5, 52.5],
          [26.0, 52.0], [25.5, 51.5], [25.0, 51.0], [24.5, 50.5],
          [24.0, 50.0], [23.5, 49.5], [23.0, 49.0], [22.5, 49.0],
          [22.0, 49.5], [21.0, 49.8], [20.0, 50.0], [19.0, 50.0],
          [18.0, 50.2], [17.0, 50.5], [16.0, 50.8], [15.0, 51.2],
          [14.5, 51.8], [14.5, 52.0]
        ]]
      }
    },
    {
      "type": "Feature",
      "id": "scandinavia",
      "properties": { "name": "Scandinavia", "regionId": "scandinavia" },
      "geometry": {
        "type": "Polygon",
        "coordinates": [[
          [5.0, 56.5], [6.0, 56.5], [7.0, 56.8], [8.0, 57.0],
          [8.5, 57.5], [9.0, 58.0], [10.0, 58.5], [10.8, 59.0],
          [11.5, 59.5], [12.0, 60.0], [12.5, 60.5], [13.0, 61.0],
          [14.0, 61.5], [14.5, 62.0], [15.0, 62.5], [15.5, 63.0],
          [16.0, 63.5], [17.0, 64.0], [18.0, 64.2], [19.0, 64.0],
          [19.5, 63.5], [20.0, 63.0], [20.5, 62.5], [21.0, 62.0],
          [22.0, 61.5], [23.0, 61.0], [24.0, 60.5], [25.0, 60.0],
          [25.5, 59.5], [26.0, 59.0], [27.0, 58.5], [28.0, 58.0],
          [29.0, 57.5], [30.0, 57.0], [30.5, 56.5], [30.0, 56.0],
          [29.0, 56.0], [28.0, 55.5], [27.0, 55.0], [26.0, 54.5],
          [25.0, 54.5], [24.0, 54.0], [23.0, 54.0], [22.0, 54.5],
          [21.0, 54.8], [20.0, 55.0], [19.0, 55.5], [18.0, 55.8],
          [17.0, 56.0], [16.0, 56.0], [15.0, 56.2], [14.0, 56.2],
          [13.0, 56.0], [12.0, 55.5], [11.0, 55.0], [10.0, 55.0],
          [9.0, 55.2], [8.0, 55.5], [7.0, 55.8], [6.0, 56.0],
          [5.0, 56.2], [5.0, 56.5]
        ]]
      }
    },
    {
      "type": "Feature",
      "id": "africa",
      "properties": { "name": "Africa", "regionId": "africa" },
      "geometry": {
        "type": "Polygon",
        "coordinates": [[
          [-9.0, 36.5], [-8.0, 36.2], [-7.0, 35.8], [-6.0, 35.5],
          [-5.0, 35.2], [-4.0, 34.8], [-3.0, 34.5], [-2.0, 34.8],
          [-2.0, 35.0], [-1.0, 35.2], [0.0, 35.5], [1.0, 36.0],
          [2.0, 36.2], [3.0, 36.5], [4.0, 36.8], [5.0, 37.0],
          [6.0, 37.2], [7.0, 37.5], [8.0, 37.2], [8.0, 36.8],
          [8.5, 36.5], [9.0, 36.0], [9.5, 35.5], [10.0, 35.0],
          [10.5, 34.5], [11.0, 34.0], [11.5, 33.5], [12.0, 33.0],
          [11.0, 32.8], [10.0, 32.5], [9.0, 32.5], [8.0, 32.8],
          [7.0, 33.0], [6.0, 33.5], [5.0, 34.0], [4.0, 34.5],
          [3.0, 34.5], [2.0, 35.0], [3.0, 35.5], [4.0, 35.8],
          [5.0, 36.0], [6.0, 36.5], [7.0, 36.8], [8.0, 37.5],
          [8.5, 37.2], [9.0, 36.8], [10.0, 36.5], [11.0, 36.2],
          [12.0, 35.8], [13.0, 35.5], [10.0, 35.8], [9.0, 36.0],
          [8.0, 36.2], [7.0, 36.5], [6.0, 36.5], [5.0, 36.8],
          [4.0, 37.0], [3.0, 37.0], [2.0, 37.2], [1.0, 37.2],
          [0.0, 37.0], [-1.0, 36.8], [-2.0, 36.5], [-3.0, 36.5],
          [-4.0, 36.2], [-5.0, 36.0], [-6.0, 36.0], [-7.0, 36.2],
          [-8.0, 36.2], [-9.0, 36.5]
        ]]
      }
    },
    {
      "type": "Feature",
      "id": "scythia",
      "properties": { "name": "Scythia", "regionId": "scythia" },
      "geometry": {
        "type": "Polygon",
        "coordinates": [[
          [28.0, 47.8], [28.5, 47.5], [29.0, 47.0], [30.0, 46.8],
          [31.0, 46.5], [32.0, 46.0], [33.0, 46.5], [34.0, 46.8],
          [35.0, 47.2], [36.0, 47.8], [36.5, 48.5], [37.0, 49.0],
          [38.0, 49.5], [38.5, 50.0], [38.0, 50.5], [37.5, 51.0],
          [37.0, 51.5], [36.0, 52.0], [35.0, 52.0], [34.0, 51.5],
          [33.0, 51.2], [32.0, 51.0], [31.0, 50.5], [30.0, 50.5],
          [29.0, 50.0], [28.0, 49.5], [27.5, 49.0], [27.0, 48.5],
          [28.0, 47.8]
        ]]
      }
    }
  ]
}
